NORAD_CAT_ID,OBJECT_NAME,OBJECT_TYPE,EPOCH,MEAN_MOTION,ECCENTRICITY,INCLINATION,RA_OF_ASC_NODE,ARG_OF_PERICENTER,MEAN_ANOMALY,BSTAR,MEAN_MOTION_DOT,MEAN_MOTION_DDOT,TLE_LINE0,TLE_LINE1,TLE_LINE2,SEMIMAJOR_AXIS,PERIOD,APOGEE,PERIGEE,DECAYED
53887.0,STARLINK-5029,PAYLOAD,2024-01-23 02:17:22,15.08839251,0.0001282,53.215,210.5002,96.2351,263.8787,8.8167e-05,1.116e-05,0.0,0 STARLINK-5029,1 53887U 22119B   24023.09540422  .00001116  00000-0  88167-4 0  9996,2 53887  53.2150 210.5002 0001282  96.2351 263.8787 15.08839251 74024,6917.883,95.438,540.635,538.861,0.0
53887.0,STARLINK-5029,PAYLOAD,2024-01-23 21:22:00,15.08846939,0.0001238,53.2153,206.9322,90.4153,269.6981,0.00012649,1.726e-05,0.0,0 STARLINK-5029,1 53887U 22119B   24023.89027852  .00001726  00000-0  12649-3 0  9999,2 53887  53.2153 206.9322 0001238  90.4153 269.6981 15.08846939 74568,6917.859,95.437,540.581,538.868,0.0
53887.0,STARLINK-5029,PAYLOAD,2024-01-24 02:08:10,15.08832582,0.0001306,53.2153,206.0393,91.2825,268.8317,1.4048e-05,-6.4e-07,0.0,0 STARLINK-5029,1 53887U 22119B   24024.08900961 -.00000064  00000-0  14048-4 0  9993,2 53887  53.2153 206.0393 0001306  91.2825 268.8317 15.08832582 74178,6917.903,95.438,540.672,538.865,0.0
53887.0,STARLINK-5029,PAYLOAD,2024-01-24 13:15:52,15.08840203,0.0001416,53.215,203.958,90.5367,269.5787,8.3076e-06,-1.56e-06,0.0,0 STARLINK-5029,1 53887U 22119B   24024.55268736 -.00000156  00000-0  83076-5 0  9992,2 53887  53.2150 203.9580 0001416  90.5367 269.5787 15.08840203 74666,6917.88,95.438,540.724,538.765,0.0
53887.0,STARLINK-5029,PAYLOAD,2024-01-24 19:37:24,15.08841891,0.0001339,53.2155,202.7689,86.0175,274.097,2.1196e-05,4.9e-07,0.0,0 STARLINK-5029,1 53887U 22119B   24024.81764621  .00000049  00000-0  21196-4 0  9999,2 53887  53.2155 202.7689 0001339  86.0175 274.0970 15.08841891 74286,6917.875,95.437,540.666,538.813,0.0
53887.0,STARLINK-5029,PAYLOAD,2024-01-24 21:12:47,15.08842307,0.0001329,53.2155,202.4717,84.9044,275.21,2.6776e-05,1.38e-06,0.0,0 STARLINK-5029,1 53887U 22119B   24024.88388558  .00000138  00000-0  26776-4 0  9995,2 53887  53.2155 202.4717 0001329  84.9044 275.2100 15.08842307 74715,6917.873,95.437,540.658,538.819,0.0
53887.0,STARLINK-5029,PAYLOAD,2024-01-24 22:48:10,15.08842733,0.0001367,53.2155,202.1742,81.6633,278.4514,3.1011e-05,2.06e-06,0.0,0 STARLINK-5029,1 53887U 22119B   24024.95012540  .00000206  00000-0  31011-4 0  9992,2 53887  53.2155 202.1742 0001367  81.6633 278.4514 15.08842733 74728,6917.872,95.437,540.683,538.791,0.0
53887.0,STARLINK-5029,PAYLOAD,2024-01-25 17:52:48,15.08848343,0.0001332,53.2144,198.6061,81.1713,278.943,0.00018911,2.724e-05,0.0,0 STARLINK-5029,1 53887U 22119B   24025.74500113  .00002724  00000-0  18911-3 0  9998,2 53887  53.2144 198.6061 0001332  81.1713 278.9430 15.08848343 74843,6917.855,95.437,540.641,538.798,0.0
53887.0,STARLINK-5029,PAYLOAD,2024-01-26 14:32:49,15.08842984,0.0001331,53.2145,194.7407,75.463,284.6509,0.00021095,3.071e-05,0.0,0 STARLINK-5029,1 53887U 22119B   24026.60612356  .00003071  00000-0  21095-3 0  9990,2 53887  53.2145 194.7407 0001331  75.4630 284.6509 15.08842984 74978,6917.871,95.437,540.657,538.815,0.0
53887.0,STARLINK-5029,PAYLOAD,2024-01-26 17:43:35,15.08845023,0.0001327,53.2145,194.1458,75.3769,284.737,0.00019713,2.851e-05,0.0,0 STARLINK-5029,1 53887U 22119B   24026.73860235  .00002851  00000-0  19713-3 0  9994,2 53887  53.2145 194.1458 0001327  75.3769 284.7370 15.08845023 74575,6917.865,95.437,540.648,538.812,0.0
53887.0,STARLINK-5029,PAYLOAD,2024-01-27 11:12:49,15.08841306,0.000134,53.2137,190.8754,75.7362,284.3779,4.5693e-05,4.39e-06,0.0,0 STARLINK-5029,1 53887U 22119B   24027.46724331  .00000439  00000-0  45693-4 0  9998,2 53887  53.2137 190.8754 0001340  75.7362 284.3779 15.08841306 74687,6917.876,95.437,540.668,538.814,0.0
53887.0,STARLINK-5029,PAYLOAD,2024-01-27 14:23:36,15.08840542,0.0001316,53.214,190.2798,78.8064,281.3076,2.4144e-05,9.6e-07,0.0,0 STARLINK-5029,1 53887U 22119B   24027.59972315  .00000096  00000-0  24144-4 0  9996,2 53887  53.2140 190.2798 0001316  78.8064 281.3076 15.08840542 75127,6917.879,95.438,540.654,538.833,0.0
53887.0,STARLINK-5029,PAYLOAD,2024-01-27 17:34:22,15.08841951,0.0001262,53.2154,189.6839,86.0139,274.0997,3.3052e-05,2.38e-06,0.0,0 STARLINK-5029,1 53887U 22119B   24027.73220311  .00000238  00000-0  33052-4 0  9990,2 53887  53.2154 189.6839 0001262  86.0139 274.0997 15.08841951 75142,6917.874,95.437,540.612,538.866,0.0
53887.0,STARLINK-5029,PAYLOAD,2024-01-28 11:03:37,15.08835306,0.0001473,53.2172,186.4157,102.5001,257.6156,3.6821e-05,2.98e-06,0.0,0 STARLINK-5029,1 53887U 22119B   24028.46084726  .00000298  00000-0  36821-4 0  9992,2 53887  53.2172 186.4157 0001473 102.5001 257.6156 15.08835306 74832,6917.895,95.438,540.779,538.741,0.0
53887.0,STARLINK-5029,PAYLOAD,2024-01-28 14:14:23,15.08836216,0.0001468,53.2172,185.8208,103.8389,256.2766,3.9913e-05,3.47e-06,0.0,0 STARLINK-5029,1 53887U 22119B   24028.59332672  .00000347  00000-0  39913-4 0  9992,2 53887  53.2172 185.8208 0001468 103.8389 256.2766 15.08836216 75271,6917.892,95.438,540.773,538.741,0.0
53887.0,STARLINK-5029,PAYLOAD,2024-01-28 15:49:46,15.08836759,0.0001471,53.2173,185.5238,103.2056,256.9101,4.211e-05,3.82e-06,0.0,0 STARLINK-5029,1 53887U 22119B   24028.65956642  .00000382  00000-0  42110-4 0  9990,2 53887  53.2173 185.5238 0001471 103.2056 256.9101 15.08836759 75284,6917.89,95.438,540.773,538.738,0.0
53887.0,STARLINK-5029,PAYLOAD,2024-01-29 09:19:00,15.08838343,0.000141,53.2172,182.2522,101.9559,258.1591,9.302e-05,1.193e-05,0.0,0 STARLINK-5029,1 53887U 22119B   24029.38820554  .00001193  00000-0  93020-4 0  9990,2 53887  53.2172 182.2522 0001410 101.9559 258.1591 15.08838343 75399,6917.885,95.438,540.726,538.775,0.0
53887.0,STARLINK-5029,PAYLOAD,2024-01-30 13:55:57,15.08838015,0.0001335,53.2171,176.8979,102.5741,257.5401,6.3061e-05,7.16e-06,0.0,0 STARLINK-5029,1 53887U 22119B   24030.58052995  .00000716  00000-0  63061-4 0  9992,2 53887  53.2171 176.8979 0001335 102.5741 257.5401 15.08838015 75578,6917.886,95.438,540.675,538.828,0.0
53887.0,STARLINK-5029,PAYLOAD,2024-01-30 18:42:07,15.08840743,0.0001271,53.2167,176.005,96.8364,263.2772,8.1842e-05,1.015e-05,0.0,0 STARLINK-5029,1 53887U 22119B   24030.77924810  .00001015  00000-0  81842-4 0  9997,2 53887  53.2167 176.0050 0001271  96.8364 263.2772 15.08840743 75183,6917.878,95.438,540.622,538.864,0.0
53887.0,STARLINK-5029,PAYLOAD,2024-01-31 18:32:54,15.08839495,0.0001383,53.2174,171.5449,86.3276,273.7874,7.2811e-05,8.71e-06,0.0,0 STARLINK-5029,1 53887U 22119B   24031.77285064  .00000871  00000-0  72811-4 0  9994,2 53887  53.2174 171.5449 0001383  86.3276 273.7874 15.08839495 75757,6917.882,95.438,540.704,538.79,0.0
53887.0,STARLINK-5029,PAYLOAD,2024-02-02 11:52:55,15.08844067,0.0001327,53.2172,163.8147,93.6067,266.5077,7.5542e-05,9.15e-06,0.0,0 STARLINK-5029,1 53887U 22119B   24033.49508659  .00000915  00000-0  75542-4 0  9996,2 53887  53.2172 163.8147 0001327  93.6067 266.5077 15.08844067 75599,6917.868,95.437,540.651,538.815,0.0
53887.0,STARLINK-5029,PAYLOAD,2024-02-02 13:28:18,15.08844618,0.0001329,53.2173,163.5174,93.3744,266.74,7.9337e-05,9.75e-06,0.0,0 STARLINK-5029,1 53887U 22119B   24033.56132610  .00000975  00000-0  79337-4 0  9996,2 53887  53.2173 163.5174 0001329  93.3744 266.7400 15.08844618 76021,6917.866,95.437,540.651,538.812,0.0
53887.0,STARLINK-5029,PAYLOAD,2024-02-02 18:14:27,15.08846036,0.000138,53.2168,162.6242,105.109,255.0055,0.00011956,1.616e-05,0.0,0 STARLINK-5029,1 53887U 22119B   24033.76004302  .00001616  00000-0  11956-3 0  9999,2 53887  53.2168 162.6242 0001380 105.1090 255.0055 15.08846036 76050,6917.862,95.437,540.682,538.772,0.0
53887.0,STARLINK-5029,PAYLOAD,2024-02-03 13:19:06,15.08887048,0.0001876,53.2168,159.0543,113.7542,246.3647,-0.00045625,-7.552e-05,0.0,0 STARLINK-5029,1 53887U 22119B   24034.55494029 -.00007552  00000-0 -45625-3 0  9993,2 53887  53.2168 159.0543 0001876 113.7542 246.3647 15.08887048 76172,6917.737,95.435,540.899,538.304,0.0
53887.0,STARLINK-5029,PAYLOAD,2024-02-04 11:34:29,15.08842728,0.0001752,53.2169,154.8916,115.1705,244.9469,-9.813e-06,-4.44e-06,0.0,0 STARLINK-5029,1 53887U 22119B   24035.48228907 -.00000444  00000-0 -98130-5 0  9990,2 53887  53.2169 154.8916 0001752 115.1705 244.9469 15.08842728 75890,6917.872,95.437,540.949,538.525,0.0
53887.0,STARLINK-5029,PAYLOAD,2024-02-04 14:45:16,15.08841054,0.0001281,53.2177,154.2985,101.6057,258.5079,-1.3228e-05,-4.98e-06,0.0,0 STARLINK-5029,1 53887U 22119B   24035.61477089 -.00000498  00000-0 -13228-4 0  9995,2 53887  53.2177 154.2985 0001281 101.6057 258.5079 15.08841054 76335,6917.877,95.437,540.628,538.856,0.0
53887.0,STARLINK-5029,PAYLOAD,2024-02-05 11:25:17,15.08837438,0.0001381,53.2172,150.4347,94.6499,265.4651,6.0696e-05,6.78e-06,0.0,0 STARLINK-5029,1 53887U 22119B   24036.47589363  .00000678  00000-0  60696-4 0  9998,2 53887  53.2172 150.4347 0001381  94.6499 265.4651 15.08837438 76044,6917.888,95.438,540.709,538.798,0.0
53887.0,STARLINK-5029,PAYLOAD,2024-02-05 14:36:03,15.08834607,0.0001534,53.2174,149.8425,96.8053,263.3113,0.00018612,2.675e-05,0.0,0 STARLINK-5029,1 53887U 22119B   24036.60837229  .00002675  00000-0  18612-3 0  9999,2 53887  53.2174 149.8425 0001534  96.8053 263.3113 15.08834607 76488,6917.897,95.438,540.823,538.701,0.0
53887.0,STARLINK-5029,PAYLOAD,2024-02-06 14:26:50,15.08840558,0.0001342,53.2178,145.384,92.684,267.4306,0.00012482,1.699e-05,0.0,0 STARLINK-5029,1 53887U 22119B   24037.60197140  .00001699  00000-0  12482-3 0  9995,2 53887  53.2178 145.3840 0001342  92.6840 267.4306 15.08840558 76637,6917.879,95.438,540.672,538.815,0.0
53887.0,STARLINK-5029,PAYLOAD,2024-02-07 11:06:51,15.08840681,0.0001471,53.2178,141.5161,96.077,264.039,1.9572e-05,2.4e-07,0.0,0 STARLINK-5029,1 53887U 22119B   24038.46309592  .00000024  00000-0  19572-4 0  9995,2 53887  53.2178 141.5161 0001471  96.0770 264.0390 15.08840681 76345,6917.878,95.438,540.761,538.726,0.0
